STARLINK-5629           
1 55419U 23014AE  24333.77074299 -.00000098  00000+0 -40830-6 0  9993
2 55419  69.9992 179.1384 0002828 266.9590  93.1246 14.98327875101775
STARLINK-5604           
1 55420U 23014AF  24333.87462204 -.00004002  00000+0 -32791-3 0  9996
2 55420  69.9991 138.9660 0003135 266.7971  93.2830 14.98316983101834
STARLINK-5598           
1 55421U 23014AG  24333.97941843 -.00005159  00000+0 -42545-3 0  9991
2 55421  69.9988 178.6623 0002472 280.6190  79.4691 14.98284098101801
STARLINK-5006           
1 55422U 23014AH  24333.75821783  .00001185  00000+0  10706-3 0  9995
2 55422  69.9990 179.0905 0002684 267.5044  92.5808 14.98331606101770
STARLINK-5068           
1 55423U 23014AJ  24333.52874502  .00000535  00000+0  52594-4 0  9998
2 55423  69.9986 179.8981 0002778 269.9300  90.1541 14.98330156101736
STARLINK-5615           
1 55425U 23014AL  24333.58717877  .00011137  00000+0  93939-3 0  9994
2 55425  70.0006 179.7029 0002162 270.8252  89.2659 14.98344197101740
STARLINK-5638           
1 55426U 23014AM  24334.00441129  .00001298  00000+0  11655-3 0  9999
2 55426  69.9990 178.7509 0002782 270.6512  89.4328 14.98336063100867
STARLINK-5073           
1 55427U 23014AN  24333.59134743 -.00000138  00000+0 -37493-5 0  9998
2 55427  69.9989 179.7159 0002878 266.2001  93.8829 14.98341038101749
STARLINK-5064           
1 55428U 23014AP  24334.01275811  .00002636  00000+0  22859-3 0  9990
2 55428  69.9986 178.7807 0003228 269.2983  90.7807 14.98331924100865
STARLINK-5645           
1 55429U 23014AQ  24334.00023793  .00001032  00000+0  94241-4 0  9994
2 55429  69.9985 178.7362 0002928 267.5536  92.5288 14.98332865100860
STARLINK-5642           
1 55430U 23014AR  24334.05887499  .00000365  00000+0  38386-4 0  9998
2 55430  69.9992 198.3968 0003201 264.0267  96.0527 14.98326907100380
STARLINK-5643           
1 55431U 23014AS  24334.00860882 -.00002464  00000+0 -19885-3 0  9997
2 55431  69.9989 178.7653 0003068 264.2793  95.8016 14.98322261100869
STARLINK-5637           
1 55432U 23014AT  24333.13274879  .00000734  00000+0  69258-4 0  9992
2 55432  69.9993 200.7844 0002656 271.0960  88.9895 14.98335081101185
STARLINK-5570           
1 55433U 23014AU  24333.38710117  .00002214  00000+0  19324-3 0  9993
2 55433  69.9991 200.0660 0002639 270.4472  89.6384 14.98337712101224
STARLINK-5621           
1 55434U 23014AV  24333.80853380  .00001168  00000+0  10567-3 0  9998
2 55434  69.9990 199.1286 0002736 271.0296  89.0550 14.98329880101287
STARLINK-5626           
1 55435U 23014AW  24334.00046628  .00000372  00000+0  38985-4 0  9992
2 55435  69.9988 198.5964 0002740 271.7683  88.3162 14.98328138100378
STARLINK-5640           
1 55436U 23014AX  24333.81270758  .00000853  00000+0  79291-4 0  9993
2 55436  69.9990 199.1424 0003091 268.4238  91.6567 14.98330087101282
STARLINK-5074           
1 55438U 23014AZ  24333.52849626  .00000214  00000+0  25713-4 0  9990
2 55438  69.9981 159.6401 0002751 269.7435  90.3409 14.98330505102237
STARLINK-5634           
1 55439U 23014BA  24333.81688241  .00000749  00000+0  70557-4 0  9996
2 55439  69.9975 199.1588 0003481 265.5057  94.5705 14.98345859101288
APSTAR-6E SPS           
1 55447U 23005C   24333.72648634  .00000046  00000+0  50837-2 0  9994
2 55447  28.6560  59.9018 2285674 321.4475  24.2660  7.60528506 50820
STARLINK-5699           
1 55449U 23015A   24334.04358589  .00001846  00000+0  15166-3 0  9996
2 55449  43.0053 336.6244 0000537 234.6904 125.3888 15.02534224100706
STARLINK-5686           
1 55450U 23015B   24333.71455232 -.00001909  00000+0 -12631-3 0  9990
2 55450  43.0130 338.4558 0002324 266.1939  93.8638 15.02513460101595
STARLINK-5656           
1 55451U 23015C   24333.70786167  .00001175  00000+0  10203-3 0  9990
2 55451  43.0061 338.4050 0001228 275.9681  84.1022 15.02540965100656
STARLINK-5683           
1 55452U 23015D   24333.70342218  .00000378  00000+0  43006-4 0  9998
2 55452  43.0012 338.3680 0000733 242.1813 117.8955 15.02540291100655
STARLINK-5684           
1 55453U 23015E   24333.30122595  .00000499  00000+0  52009-4 0  9996
2 55453  43.0062 340.5138 0001471 271.5558  88.5116 15.02538336100599
STARLINK-5636           
1 55454U 23015F   24334.09229418  .00000947  00000+0  85130-4 0  9995
2 55454  43.0062 336.1227 0000782 252.3397 107.7360 15.02547535100712
STARLINK-5680           
1 55455U 23015G   24334.03913874 -.00001956  00000+0 -12972-3 0  9992
2 55455  43.0052 336.5911 0001140 251.9579 108.1139 15.02539988100703
STARLINK-5058           
1 55456U 23015H   24334.02693433  .00000854  00000+0  78231-4 0  9993
2 55456  42.9984 336.4949 0000554 225.7205 134.3591 15.02540441100528
STARLINK-5682           
1 55457U 23015J   24334.02917966  .00004141  00000+0  32163-3 0  9990
2 55457  43.0101 336.5228 0002330 301.1724  58.8890 15.02512806100708
STARLINK-5020           
1 55458U 23015K   24333.74992075  .00001651  00000+0  13724-3 0  9998
2 55458  43.0051 337.8581 0000973 262.1261  97.9471 15.02538191100661
