OBJECT_NAME,OBJECT_ID,EPOCH,MEAN_MOTION,ECCENTRICITY,INCLINATION,RA_OF_ASC_NODE,ARG_OF_PERICENTER,MEAN_ANOMALY,EPHEMERIS_TYPE,CLASSIFICATION_TYPE,NORAD_CAT_ID,ELEMENT_SET_NO,REV_AT_EPOCH,BSTAR,MEAN_MOTION_DOT,MEAN_MOTION_DDOT
STARLINK-5629,2023-014AE,2024-11-28T18:29:52.194336,14.98327875,.0002828,69.9992,179.1384,266.9590,93.1246,0,U,55419,999,10177,-.4083E-6,-.98E-6,0
STARLINK-5604,2023-014AF,2024-11-28T20:59:27.344256,14.98316983,.0003135,69.9991,138.9660,266.7971,93.2830,0,U,55420,999,10183,-.32791E-3,-.4002E-4,0
STARLINK-5598,2023-014AG,2024-11-28T23:30:21.752352,14.98284098,.0002472,69.9988,178.6623,280.6190,79.4691,0,U,55421,999,10180,-.42545E-3,-.5159E-4,0
STARLINK-5006,2023-014AH,2024-11-28T18:11:50.020512,14.98331606,.0002684,69.9990,179.0905,267.5044,92.5808,0,U,55422,999,10177,.10706E-3,.1185E-4,0
STARLINK-5068,2023-014AJ,2024-11-28T12:41:23.569728,14.98330156,.0002778,69.9986,179.8981,269.9300,90.1541,0,U,55423,999,10173,.52594E-4,.535E-5,0
STARLINK-5615,2023-014AL,2024-11-28T14:05:32.245728,14.98344197,.0002162,70.0006,179.7029,270.8252,89.2659,0,U,55425,999,10174,.93939E-3,.11137E-3,0
STARLINK-5638,2023-014AM,2024-11-29T00:06:21.135456,14.98336063,.0002782,69.9990,178.7509,270.6512,89.4328,0,U,55426,999,10086,.11655E-3,.1298E-4,0
STARLINK-5073,2023-014AN,2024-11-28T14:11:32.417952,14.98341038,.0002878,69.9989,179.7159,266.2001,93.8829,0,U,55427,999,10174,-.37493E-5,-.138E-5,0
STARLINK-5064,2023-014AP,2024-11-29T00:18:22.300704,14.98331924,.0003228,69.9986,178.7807,269.2983,90.7807,0,U,55428,999,10086,.22859E-3,.2636E-4,0
STARLINK-5645,2023-014AQ,2024-11-29T00:00:20.557152,14.98332865,.0002928,69.9985,178.7362,267.5536,92.5288,0,U,55429,999,10086,.94241E-4,.1032E-4,0
STARLINK-5642,2023-014AR,2024-11-29T01:24:46.799136,14.98326907,.0003201,69.9992,198.3968,264.0267,96.0527,0,U,55430,999,10038,.38386E-4,.365E-5,0
STARLINK-5643,2023-014AS,2024-11-29T00:12:23.802048,14.98322261,.0003068,69.9989,178.7653,264.2793,95.8016,0,U,55431,999,10086,-.19885E-3,-.2464E-4,0
STARLINK-5637,2023-014AT,2024-11-28T03:11:09.495456,14.98335081,.0002656,69.9993,200.7844,271.0960,88.9895,0,U,55432,999,10118,.69258E-4,.734E-5,0
STARLINK-5570,2023-014AU,2024-11-28T09:17:25.541088,14.98337712,.0002639,69.9991,200.0660,270.4472,89.6384,0,U,55433,999,10122,.19324E-3,.2214E-4,0
STARLINK-5621,2023-014AV,2024-11-28T19:24:17.320320,14.98329880,.0002736,69.9990,199.1286,271.0296,89.0550,0,U,55434,999,10128,.10567E-3,.1168E-4,0
STARLINK-5626,2023-014AW,2024-11-29T00:00:40.286592,14.98328138,.000274,69.9988,198.5964,271.7683,88.3162,0,U,55435,999,10037,.38985E-4,.372E-5,0
STARLINK-5640,2023-014AX,2024-11-28T19:30:17.934912,14.98330087,.0003091,69.9990,199.1424,268.4238,91.6567,0,U,55436,999,10128,.79291E-4,.853E-5,0
STARLINK-5074,2023-014AZ,2024-11-28T12:41:02.076864,14.98330505,.0002751,69.9981,159.6401,269.7435,90.3409,0,U,55438,999,10223,.25713E-4,.214E-5,0
STARLINK-5634,2023-014BA,2024-11-28T19:36:18.640224,14.98345859,.0003481,69.9975,199.1588,265.5057,94.5705,0,U,55439,999,10128,.70557E-4,.749E-5,0
APSTAR-6E SPS,2023-005C,2024-11-28T17:26:08.419776,7.60528506,.2285674,28.6560,59.9018,321.4475,24.2660,0,U,55447,999,5082,.50837E-2,.46E-6,0
STARLINK-5699,2023-015A,2024-11-29T01:02:45.820896,15.02534224,.0000537,43.0053,336.6244,234.6904,125.3888,0,U,55449,999,10070,.15166E-3,.1846E-4,0
STARLINK-5686,2023-015B,2024-11-28T17:08:57.320448,15.02513460,.0002324,43.0130,338.4558,266.1939,93.8638,0,U,55450,999,10159,-.12631E-3,-.1909E-4,0
STARLINK-5656,2023-015C,2024-11-28T16:59:19.248288,15.02540965,.0001228,43.0061,338.4050,275.9681,84.1022,0,U,55451,999,10065,.10203E-3,.1175E-4,0
STARLINK-5683,2023-015D,2024-11-28T16:52:55.676352,15.02540291,.0000733,43.0012,338.3680,242.1813,117.8955,0,U,55452,999,10065,.43006E-4,.378E-5,0
STARLINK-5684,2023-015E,2024-11-28T07:13:45.922080,15.02538336,.0001471,43.0062,340.5138,271.5558,88.5116,0,U,55453,999,10059,.52009E-4,.499E-5,0
STARLINK-5636,2023-015F,2024-11-29T02:12:54.217152,15.02547535,.0000782,43.0062,336.1227,252.3397,107.7360,0,U,55454,999,10071,.8513E-4,.947E-5,0
STARLINK-5680,2023-015G,2024-11-29T00:56:21.587136,15.02539988,.000114,43.0052,336.5911,251.9579,108.1139,0,U,55455,999,10070,-.12972E-3,-.1956E-4,0
STARLINK-5058,2023-015H,2024-11-29T00:38:47.126112,15.02540441,.0000554,42.9984,336.4949,225.7205,134.3591,0,U,55456,999,10052,.78231E-4,.854E-5,0
STARLINK-5682,2023-015J,2024-11-29T00:42:01.122624,15.02512806,.000233,43.0101,336.5228,301.1724,58.8890,0,U,55457,999,10070,.32163E-3,.4141E-4,0
STARLINK-5020,2023-015K,2024-11-28T17:59:53.152800,15.02538191,.0000973,43.0051,337.8581,262.1261,97.9471,0,U,55458,999,10066,.13724E-3,.1651E-4,0
